00295   10.06  0.15 K243V 136.31496  148.49700  275.86147    2.69979  0.1674495  0.21054496   2.7983765  0 MPO840815  6923  54 1899-2024 0.57 M-v 3Ek MPCLINUX   0000    (295) Theresia           20240711
00296   12.58  0.15 K24AH  81.10453  252.57554  121.54973    1.74827  0.1605054  0.29623254   2.2286791  0 E2024-VG3  6616  42 1930-2024 0.55 M-v 3Ek MPCLINUX   0000    (296) Phaetusa           20241111
00297    9.24  0.15 K243V 247.28690  353.62456  331.88765    7.54928  0.1388004  0.17474263   3.1686199  0 MPO840815  8800  55 1890-2024 0.53 M-v 3Ek MPCLINUX   0000    (297) Caecilia           20240709
00298   11.25  0.15 K24AH 357.96591  134.84582    8.11720    6.28049  0.0950333  0.28939767   2.2636331  0 E2024-VG3  4060  49 1892-2024 0.68 M-v 3Ek MPCLINUX   0000    (298) Baptistina         20241111
00299   11.38  0.15 K24AH  99.32146  150.88366  241.40793    1.60864  0.0627979  0.25965361   2.4333606  0 E2024-VE1  4786  38 1932-2024 0.67 M-v 3Ek MPCLINUX   0000    (299) Thora              20241110
00300    9.77  0.15 K24AH 114.30230  318.84475   42.78800    0.72519  0.0591638  0.17189749   3.2034875  0 E2024-VG3  5058  69 1890-2024 0.71 M-v 3Ek MPCLINUX   0000    (300) Geraldina          20241111
00301   10.53  0.15 K24AH  55.11895  123.67981  142.28490    4.89822  0.0658197  0.21913405   2.7247677  0 E2024-VG3  8099  61 1890-2024 0.57 M-v 3Ek MPCLINUX   0000    (301) Bavaria            20241111
00302   11.31  0.15 K24AH 285.42161   55.32657    7.71671    3.41316  0.1105131  0.26418426   2.4054597  0 E2024-VB0  8337  55 1890-2024 0.55 M-v 3Ek MPCLINUX   0000    (302) Clarissa           20241108
00303    9.11  0.15 K243V 133.36438   67.91144  343.64854    6.88518  0.0564127  0.17850832   3.1238997  0 MPO840815 11233  67 1891-2024 0.49 M-v 3Ek MPCLINUX   0000    (303) Josephina          20240708
00304   10.06  0.15 K24AH 137.25245  172.45139  158.96097   15.84779  0.2223874  0.26467402   2.4024914  0 E2024-VE1 12534  45 1891-2024 0.43 M-v 3Ek MPCLINUX   0007    (304) Olga               20241110
00305    8.88  0.15 K24AH 228.13868  260.61185  207.45431    4.45107  0.1970361  0.18166410   3.0876162  0 E2024-VC2  8685  64 1892-2024 0.54 M-v 3Ek MPCLINUX   0000    (305) Gordonia           20241109
00306    8.79  0.15 K24AH 185.57406  168.01098  141.78533    7.27828  0.1520402  0.27235723   2.3570933  0 E2024-VE1  4325  71 1891-2024 0.77 M-v 3Ek MPCLINUX   0000    (306) Unitas             20241110
00307   10.10  0.15 K24AH  48.66423  323.34557  100.86472    6.12849  0.1432316  0.19889169   2.9066425  0 E2024-VE1  5512  59 1891-2024 0.64 M-v 3Ek MPCLINUX   0000    (307) Nike               20241110
00308    8.19  0.15 K24AH   2.29612  112.24811  181.58337    4.36257  0.0386606  0.21616555   2.7496562  0 E2024-VG3  6338  77 1891-2024 0.68 M-v 3Ek MPCLINUX   0000    (308) Polyxo             20241111
00309   10.69  0.15 K24AH 148.78510  311.45330  356.33664    3.70771  0.1158186  0.22654691   2.6650005  0 E2024-VG3  5068  53 1891-2024 0.69 M-v 3Ek MPCLINUX   0000    (309) Fraternitas        20241111
00310   10.21  0.15 K24AH  62.09241  324.85259  229.04079    3.17187  0.1170289  0.21481623   2.7611584  0 E2024-VB0  7795  60 1920-2024 0.58 M-v 3Ek MPCLINUX   0000    (310) Margarita          20241015
00311   10.07  0.15 K24AH 112.91700   78.00686   80.96198    3.22418  0.0060749  0.19977662   2.8980526  0 E2024-UN8  8026  64 1902-2024 0.57 M-v 3Ek MPCLINUX   0000    (311) Claudia            20241019
00312    8.99  0.15 K243V 277.86714  262.04441    6.20723    9.03562  0.1602742  0.21244295   2.7816842  0 MPO840815  7944  48 1891-2024 0.55 M-v 3Ek MPCLINUX   0000    (312) Pierretta          20240707
00313    9.21  0.15 K24AH 350.51560  315.65610  176.53841   11.64440  0.1808604  0.26922093   2.3753640  0 E2024-VG3  7289  76 1893-2024 0.61 M-v 3Ek MPCLINUX   0000    (313) Chaldaea           20241111
00314   10.18  0.15 K24AH 281.77914  191.89845  169.94823   12.51232  0.1710045  0.17543566   3.1602696  0 E2024-TQ2 10473  52 1891-2024 0.49 M-v 3Ek MPCLINUX   0000    (314) Rosalia            20240922
00315   12.57  0.15 K243V 189.14165  172.76657  161.62789    2.42947  0.1684765  0.29378745   2.2410277  0 MPO840815  4628  41 1928-2024 0.71 M-v 3Ek MPCLINUX   0000    (315) Constantia         20240707
00316   10.17  0.15 K243V  78.61476  317.56005  123.78904    2.34689  0.1277514  0.17358294   3.1827170  0 MPO840815  7658  61 1891-2024 0.60 M-v 3Ek MPCLINUX   0000    (316) Goberta            20240708
00317    9.78  0.15 K24AH 174.66970  186.71995  151.33138    1.76620  0.0861224  0.28517278   2.2859356  0 E2024-VE1  4770  67 1891-2024 0.74 M-v 3Ek MPCLINUX   0000    (317) Roxane             20241110
00318    9.49  0.15 K24AH 318.83727  294.52916  161.45617   10.65076  0.0854315  0.17246862   3.1964114  0 E2024-VG3  5389  61 1891-2024 0.69 M-v 3Ek MPCLINUX   0000    (318) Magdalena          20241110
00319   10.17  0.15 K24AH  70.27005  226.98727  184.84959   10.56342  0.2144298  0.15659666   3.4089009  0 E2024-VE1  5181  49 1891-2024 0.70 M-v 3Ek MPCLINUX   0000    (319) Leona              20241110
00320   10.81  0.15 K243V 125.67367  148.43587  219.76463    9.38949  0.1159319  0.18871316   3.0102409  0 MPO840815  5283  48 1907-2024 0.64 M-v 3Ek MPCLINUX   0000    (320) Katharina          20240627
00321   10.12  0.15 K24AH   9.11477   32.48546   40.19052    2.58289  0.0476810  0.20082985   2.8879114  0 E2024-VG3  4591  62 1893-2024 0.65 M-v 3Ek MPCLINUX   0000    (321) Florentina         20241111
00322    9.18  0.15 K24AH 260.19885  114.88864  252.28536    8.04586  0.2442752  0.21212238   2.7844861  0 E2024-S01  7745  55 1891-2024 0.52 M-v 3Ek MPCLINUX   0000    (322) Phaeo              20240914
00323    9.52  0.15 K24AH  83.15905  291.53204   97.28181   24.26223  0.2998107  0.26818107   2.3815003  0 E2024-VG3  4025  43 1891-2024 0.71 M-v 3Ek MPCLINUX   0000    (323) Brucia             20241111
00324    7.23  0.15 K243V 134.20972   44.18034  327.85243   11.09978  0.3410376  0.22450406   2.6811426  0 MPO840815  7103  76 1892-2024 0.60 M-v 3Ek MPCLINUX   0000    (324) Bamberga           20240703
00325    8.96  0.15 K243V 123.70138   70.93027  344.21005    8.57221  0.1512674  0.17081469   3.2170112  0 MPO840815 10285  63 1898-2024 0.47 M-v 3Ek MPCLINUX   0000    (325) Heidelberga        20240711
00326    9.40  0.15 K24AH 143.99640  238.79961   32.15942   23.71003  0.1894654  0.27906047   2.3191945  0 E2024-VC2  6418  49 1893-2024 0.60 M-v 3Ek MPCLINUX   0007    (326) Tamara             20241109
00327   10.05  0.15 K24AH 128.98213  309.70361  354.61735    7.12914  0.0621270  0.21274123   2.7790835  0 E2024-VG3  6711  53 1892-2024 0.59 M-v 3Ek MPCLINUX   0000    (327) Columbia           20241111
00328    9.02  0.15 K24AH 140.94818  107.49315  351.87958   16.13000  0.1076605  0.17973463   3.1096741  0 E2024-SB7  9086  51 1911-2024 0.48 M-v 3Ek MPCLINUX   0000    (328) Gudrun             20240925
00329    9.64  0.15 K243V 268.36667   57.98805  178.44247   15.88231  0.0259560  0.25296282   2.4760814  0 MPO840815  4854  53 1892-2024 0.72 M-v 3Ek MPCLINUX   0007    (329) Svea               20240627
00330   12.53  0.15 K24AH 275.38231  259.20428  137.07585    6.75859  0.2518644  0.25399712   2.4693549  0 E2024-U19  7630  35 1910-2024 0.58 M-v 3Ek MPCLINUX   0000    (330) Adalberta          20241018
00331    9.95  0.15 K24AH 289.07376  334.20328   21.84364    6.03512  0.0955533  0.18713953   3.0270925  0 E2024-U29 12205  63 1892-2024 0.45 M-v 3Ek MPCLINUX   0000    (331) Etheridgea         20241019
00332    9.71  0.15 K24AH 104.07430  298.51387   31.49990    2.83981  0.0901119  0.21314852   2.7755422  0 E2024-VG3  5008  69 1892-2024 0.75 M-v 3Ek MPCLINUX   0000    (332) Siri               20241111
00333    9.60  0.15 K24AH 304.00613   23.29528  353.12269    3.73832  0.1599950  0.17792143   3.1307656  0 E2024-VG3  8477  68 1892-2024 0.56 M-v 3Ek MPCLINUX   0000    (333) Badenia            20241111
00334    7.66  0.15 K24AH 114.77810  169.05176  129.80984    4.63718  0.0250931  0.12698307   3.9201755  0 E2024-VG3  4795  88 1892-2024 0.74 M-v 3Ek MPCLINUX   0008    (334) Chicago            20241111
00335    9.12  0.15 K24AH  34.89283  139.78186  148.41485    5.10247  0.1719232  0.25306677   2.4754033  0 E2024-VG3  5999  67 1892-2024 0.70 M-v 3Ek MPCLINUX   0000    (335) Roberta            20241110
00336    9.98  0.15 K24AH 119.39114   31.06650  234.98568    5.65223  0.0949627  0.29166057   2.2519093  0 E2024-VG3 10068  59 1892-2024 0.51 M-v 3Ek MPCLINUX   0000    (336) Lacadiera          20241111
00337    8.97  0.15 K24AH 252.33601   99.51896  355.32652    7.85979  0.1368732  0.26795546   2.3828368  0 E2024-VG3  9699  66 1892-2024 0.49 M-v 3Ek MPCLINUX   0000    (337) Devosa             20241111
00338    8.59  0.15 K243V 137.81820  110.41984  287.30010    6.03790  0.0180113  0.19831154   2.9123086  0 MPO840816  6412  66 1892-2024 0.60 M-v 3Ek MPCLINUX   0000    (338) Budrosa            20240708
00339    9.42  0.15 K24AH 117.57650  163.92601  173.33997    9.95316  0.1015035  0.18859765   3.0114700  0 E2024-VE1  6076  57 1892-2024 0.61 M-v 3Ek MPCLINUX   0000    (339) Dorothea           20241110
00340   10.01  0.15 K24AH 311.68285   43.19689   26.94584    4.66820  0.1175625  0.21671374   2.7450173  0 E2024-VE1  7488  56 1899-2024 0.56 M-v 3Ek MPCLINUX   0000    (340) Eduarda            20241110
00341   11.32  0.15 K243V 141.80242  293.75880   29.00496    5.66615  0.1946735  0.30229457   2.1987836  0 MPO840816  4641  40 1902-2024 0.47 M-v 3Ek MPCLINUX   0000    (341) California         20240517
00342   10.28  0.15 K24AH 334.32162  224.51734  232.64926    7.35379  0.1304600  0.23933881   2.5691767  0 E2024-VG3  7656  51 1900-2024 0.56 M-v 3Ek MPCLINUX   0000    (342) Endymion           20241111
00343   11.72  0.15 K243V  32.73158   10.10434   38.57867    3.25929  0.2299456  0.26323390   2.4112459  0 MPO840816  4572  44 1892-2024 0.47 M-v 3Ek MPCLINUX   0000    (343) Ostara             20240501
